{
  "type": "FeatureCollection",
  "features": [
    {
      "type": "Feature",
      "properties": {
        "norad_id": 35706,
        "name": "COSMOS 2251 DEB",
        "group": "cosmos-2251-debris",
        "lat": 5.151042307975373,
        "lon": -123.85117441712492,
        "alt_km": 913.1222263608925,
        "timestamp": "2025-12-15T20:48:54.280892+00:00",
        "meta_object_name": "COSMOS 2251 DEB",
        "meta_object_id": "1993-036AQB",
        "meta_epoch": "2025-12-14T21:08:56.537088",
        "meta_mean_motion": 13.65929011,
        "meta_eccentricity": 0.03404676,
        "meta_inclination": 73.8893,
        "meta_ra_of_asc_node": 59.2702,
        "meta_arg_of_pericenter": 108.6738,
        "meta_mean_anomaly": 255.1655,
        "meta_ephemeris_type": 0,
        "meta_classification_type": "U",
        "meta_norad_cat_id": 35706,
        "meta_element_set_no": 999,
        "meta_rev_at_epoch": 62091,
        "meta_bstar": 0.00069767153,
        "meta_mean_motion_dot": 8.33e-06,
        "meta_mean_motion_ddot": 0,
        "tle_line1": "1 35706U 93036AQB 25348.88120992  .00000833  00000+0  69767-3 0  9994",
        "tle_line2": "2 35706  73.8893  59.2702 0340467 108.6738 255.1655 13.65929011620917"
      },
      "geometry": {
        "type": "Point",
        "coordinates": [
          -123.85117441712492,
          5.151042307975373
        ]
      }
    },
    {
      "type": "Feature",
      "properties": {
        "norad_id": 35711,
        "name": "COSMOS 2251 DEB",
        "group": "cosmos-2251-debris",
        "lat": -73.29175001502874,
        "lon": 106.83405170635235,
        "alt_km": 648.5224303153273,
        "timestamp": "2025-12-15T20:48:54.280903+00:00",
        "meta_object_name": "COSMOS 2251 DEB",
        "meta_object_id": "1993-036AQG",
        "meta_epoch": "2025-12-14T09:09:24.990336",
        "meta_mean_motion": 14.63807482,
        "meta_eccentricity": 0.00854419,
        "meta_inclination": 74.0452,
        "meta_ra_of_asc_node": 217.3086,
        "meta_arg_of_pericenter": 317.9092,
        "meta_mean_anomaly": 41.5532,
        "meta_ephemeris_type": 0,
        "meta_classification_type": "U",
        "meta_norad_cat_id": 35711,
        "meta_element_set_no": 999,
        "meta_rev_at_epoch": 87795,
        "meta_bstar": 0.00027048668,
        "meta_mean_motion_dot": 1.455e-05,
        "meta_mean_motion_ddot": 0,
        "tle_line1": "1 35711U 93036AQG 25348.38153924  .00001455  00000+0  27049-3 0  9994",
        "tle_line2": "2 35711  74.0452 217.3086 0085441 317.9092  41.5532 14.63807482877950"
      },
      "geometry": {
        "type": "Point",
        "coordinates": [
          106.83405170635235,
          -73.29175001502874
        ]
      }
    },
    {
      "type": "Feature",
      "properties": {
        "norad_id": 35716,
        "name": "COSMOS 2251 DEB",
        "group": "cosmos-2251-debris",
        "lat": -54.25653967398125,
        "lon": 164.71053176010952,
        "alt_km": 694.5642112251644,
        "timestamp": "2025-12-15T20:48:54.280913+00:00",
        "meta_object_name": "COSMOS 2251 DEB",
        "meta_object_id": "1993-036AQM",
        "meta_epoch": "2025-12-14T20:28:26.855040",
        "meta_mean_motion": 14.6008889,
        "meta_eccentricity": 0.00888416,
        "meta_inclination": 73.9921,
        "meta_ra_of_asc_node": 190.159,
        "meta_arg_of_pericenter": 30.6001,
        "meta_mean_anomaly": 344.0625,
        "meta_ephemeris_type": 0,
        "meta_classification_type": "U",
        "meta_norad_cat_id": 35716,
        "meta_element_set_no": 999,
        "meta_rev_at_epoch": 87658,
        "meta_bstar": 0.00010459192,
        "meta_mean_motion_dot": 4.99e-06,
        "meta_mean_motion_ddot": 0,
        "tle_line1": "1 35716U 93036AQM 25348.85308860  .00000499  00000+0  10459-3 0  9996",
        "tle_line2": "2 35716  73.9921 190.1590 0088841  30.6001 344.0625 14.60088890876581"
      },
      "geometry": {
        "type": "Point",
        "coordinates": [
          164.71053176010952,
          -54.25653967398125
        ]
      }
    },
    {
      "type": "Feature",
      "properties": {
        "norad_id": 35717,
        "name": "COSMOS 2251 DEB",
        "group": "cosmos-2251-debris",
        "lat": -10.307668732387297,
        "lon": 34.7372148226111,
        "alt_km": 794.3953984330037,
        "timestamp": "2025-12-15T20:48:54.280923+00:00",
        "meta_object_name": "COSMOS 2251 DEB",
        "meta_object_id": "1993-036AQN",
        "meta_epoch": "2025-12-11T09:07:06.227616",
        "meta_mean_motion": 14.38476212,
        "meta_eccentricity": 0.00768139,
        "meta_inclination": 74.1604,
        "meta_ra_of_asc_node": 219.9837,
        "meta_arg_of_pericenter": 79.9617,
        "meta_mean_anomaly": 281.0194,
        "meta_ephemeris_type": 0,
        "meta_classification_type": "U",
        "meta_norad_cat_id": 35717,
        "meta_element_set_no": 999,
        "meta_rev_at_epoch": 74080,
        "meta_bstar": 0.0019460313,
        "meta_mean_motion_dot": 6.131e-05,
        "meta_mean_motion_ddot": 0,
        "tle_line1": "1 35717U 93036AQN 25345.37993319  .00006131  00000+0  19460-2 0  9999",
        "tle_line2": "2 35717  74.1604 219.9837 0076813  79.9617 281.0194 14.38476212740802"
      },
      "geometry": {
        "type": "Point",
        "coordinates": [
          34.7372148226111,
          -10.307668732387297
        ]
      }
    },
    {
      "type": "Feature",
      "properties": {
        "norad_id": 35718,
        "name": "COSMOS 2251 DEB",
        "group": "cosmos-2251-debris",
        "lat": -73.76106658568008,
        "lon": 44.446694304990515,
        "alt_km": 673.5072359298465,
        "timestamp": "2025-12-15T20:48:54.280932+00:00",
        "meta_object_name": "COSMOS 2251 DEB",
        "meta_object_id": "1993-036AQP",
        "meta_epoch": "2025-12-14T15:47:09.025440",
        "meta_mean_motion": 14.68701356,
        "meta_eccentricity": 0.00106898,
        "meta_inclination": 74.0305,
        "meta_ra_of_asc_node": 126.2581,
        "meta_arg_of_pericenter": 174.8201,
        "meta_mean_anomaly": 185.3082,
        "meta_ephemeris_type": 0,
        "meta_classification_type": "U",
        "meta_norad_cat_id": 35718,
        "meta_element_set_no": 999,
        "meta_rev_at_epoch": 65868,
        "meta_bstar": 0.0014363225,
        "meta_mean_motion_dot": 8.35e-05,
        "meta_mean_motion_ddot": 0,
        "tle_line1": "1 35718U 93036AQP 25348.65774335  .00008350  00000+0  14363-2 0  9991",
        "tle_line2": "2 35718  74.0305 126.2581 0010689 174.8201 185.3082 14.68701356658688"
      },
      "geometry": {
        "type": "Point",
        "coordinates": [
          44.446694304990515,
          -73.76106658568008
        ]
      }
    },
    {
      "type": "Feature",
      "properties": {
        "norad_id": 35721,
        "name": "COSMOS 2251 DEB",
        "group": "cosmos-2251-debris",
        "lat": -73.5946583628927,
        "lon": 69.90221687475679,
        "alt_km": 717.2911959271969,
        "timestamp": "2025-12-15T20:48:54.280942+00:00",
        "meta_object_name": "COSMOS 2251 DEB",
        "meta_object_id": "1993-036AQS",
        "meta_epoch": "2025-12-09T19:36:39.465216",
        "meta_mean_motion": 14.34317214,
        "meta_eccentricity": 0.01465875,
        "meta_inclination": 73.9489,
        "meta_ra_of_asc_node": 183.1196,
        "meta_arg_of_pericenter": 330.1589,
        "meta_mean_anomaly": 29.126,
        "meta_ephemeris_type": 0,
        "meta_classification_type": "U",
        "meta_norad_cat_id": 35721,
        "meta_element_set_no": 999,
        "meta_rev_at_epoch": 57747,
        "meta_bstar": 0.0018396061,
        "meta_mean_motion_dot": 5.808e-05,
        "meta_mean_motion_ddot": 0,
        "tle_line1": "1 35721U 93036AQS 25343.81712344  .00005808  00000+0  18396-2 0  9995",
        "tle_line2": "2 35721  73.9489 183.1196 0146587 330.1589  29.1260 14.34317214577479"
      },
      "geometry": {
        "type": "Point",
        "coordinates": [
          69.90221687475679,
          -73.5946583628927
        ]
      }
    },
    {
      "type": "Feature",
      "properties": {
        "norad_id": 35724,
        "name": "COSMOS 2251 DEB",
        "group": "cosmos-2251-debris",
        "lat": 57.77574092440425,
        "lon": 89.7120160906221,
        "alt_km": 656.4112363965369,
        "timestamp": "2025-12-15T20:48:54.280952+00:00",
        "meta_object_name": "COSMOS 2251 DEB",
        "meta_object_id": "1993-036AQV",
        "meta_epoch": "2025-12-14T14:38:29.128704",
        "meta_mean_motion": 14.58202811,
        "meta_eccentricity": 0.00589744,
        "meta_inclination": 74.0327,
        "meta_ra_of_asc_node": 299.1196,
        "meta_arg_of_pericenter": 92.2459,
        "meta_mean_anomaly": 268.546,
        "meta_ephemeris_type": 0,
        "meta_classification_type": "U",
        "meta_norad_cat_id": 35724,
        "meta_element_set_no": 999,
        "meta_rev_at_epoch": 87556,
        "meta_bstar": 0.00032335502,
        "meta_mean_motion_dot": 1.498e-05,
        "meta_mean_motion_ddot": 0,
        "tle_line1": "1 35724U 93036AQV 25348.61005936  .00001498  00000+0  32336-3 0  9995",
        "tle_line2": "2 35724  74.0327 299.1196 0058974  92.2459 268.5460 14.58202811875561"
      },
      "geometry": {
        "type": "Point",
        "coordinates": [
          89.7120160906221,
          57.77574092440425
        ]
      }
    }
  ]
}